{
  "type": "FeatureCollection",
  "features": [
    {
      "type": "Feature",
      "properties": {
        "norad_id": 34752,
        "name": "COSMOS 2251 DEB",
        "group": "cosmos-2251-debris",
        "lat": 22.849076372939763,
        "lon": 155.60704647882707,
        "alt_km": 543.6722381046584,
        "timestamp": "2025-12-21T14:40:48.313905+00:00",
        "meta_object_name": "COSMOS 2251 DEB",
        "meta_object_id": "1993-036ZW",
        "meta_epoch": "2025-12-21T01:11:10.392576",
        "meta_mean_motion": 15.00097116,
        "meta_eccentricity": 0.00475293,
        "meta_inclination": 74.013,
        "meta_ra_of_asc_node": 343.6896,
        "meta_arg_of_pericenter": 109.4224,
        "meta_mean_anomaly": 251.2108,
        "meta_ephemeris_type": 0,
        "meta_classification_type": "U",
        "meta_norad_cat_id": 34752,
        "meta_element_set_no": 999,
        "meta_rev_at_epoch": 89974,
        "meta_bstar": 0.00065684856,
        "meta_mean_motion_dot": 8.356e-05,
        "meta_mean_motion_ddot": 0,
        "tle_line1": "1 34752U 93036ZW  25355.04942584  .00008356  00000+0  65685-3 0  9992",
        "tle_line2": "2 34752  74.0130 343.6896 0047529 109.4224 251.2108 15.00097116899742"
      },
      "geometry": {
        "type": "Point",
        "coordinates": [
          155.60704647882707,
          22.849076372939763
        ]
      }
    },
    {
      "type": "Feature",
      "properties": {
        "norad_id": 34754,
        "name": "COSMOS 2251 DEB",
        "group": "cosmos-2251-debris",
        "lat": 28.623498557013693,
        "lon": -139.81637050723148,
        "alt_km": 745.9320342090159,
        "timestamp": "2025-12-21T14:40:48.313915+00:00",
        "meta_object_name": "COSMOS 2251 DEB",
        "meta_object_id": "1993-036ZY",
        "meta_epoch": "2025-12-20T19:07:10.186752",
        "meta_mean_motion": 14.40491841,
        "meta_eccentricity": 0.00298715,
        "meta_inclination": 74.0294,
        "meta_ra_of_asc_node": 212.6992,
        "meta_arg_of_pericenter": 327.2966,
        "meta_mean_anomaly": 157.5526,
        "meta_ephemeris_type": 0,
        "meta_classification_type": "U",
        "meta_norad_cat_id": 34754,
        "meta_element_set_no": 999,
        "meta_rev_at_epoch": 88249,
        "meta_bstar": 0.00013988475,
        "meta_mean_motion_dot": 4.21e-06,
        "meta_mean_motion_ddot": 0,
        "tle_line1": "1 34754U 93036ZY  25354.79664568  .00000421  00000+0  13988-3 0  9992",
        "tle_line2": "2 34754  74.0294 212.6992 0029871 327.2966 157.5526 14.40491841882492"
      },
      "geometry": {
        "type": "Point",
        "coordinates": [
          -139.81637050723148,
          28.623498557013693
        ]
      }
    },
    {
      "type": "Feature",
      "properties": {
        "norad_id": 34755,
        "name": "COSMOS 2251 DEB",
        "group": "cosmos-2251-debris",
        "lat": 32.28280588533458,
        "lon": 85.27011933128242,
        "alt_km": 1321.6438919078128,
        "timestamp": "2025-12-21T14:40:48.313925+00:00",
        "meta_object_name": "COSMOS 2251 DEB",
        "meta_object_id": "1993-036ZZ",
        "meta_epoch": "2025-12-20T18:30:29.240064",
        "meta_mean_motion": 13.50572591,
        "meta_eccentricity": 0.04081275,
        "meta_inclination": 73.9255,
        "meta_ra_of_asc_node": 277.1155,
        "meta_arg_of_pericenter": 295.5233,
        "meta_mean_anomaly": 88.1239,
        "meta_ephemeris_type": 0,
        "meta_classification_type": "U",
        "meta_norad_cat_id": 34755,
        "meta_element_set_no": 999,
        "meta_rev_at_epoch": 82632,
        "meta_bstar": 0.00057435404,
        "meta_mean_motion_dot": 5.95e-06,
        "meta_mean_motion_ddot": 0,
        "tle_line1": "1 34755U 93036ZZ  25354.77117176  .00000595  00000+0  57435-3 0  9996",
        "tle_line2": "2 34755  73.9255 277.1155 0408127 295.5233  88.1239 13.50572591826326"
      },
      "geometry": {
        "type": "Point",
        "coordinates": [
          85.27011933128242,
          32.28280588533458
        ]
      }
    },
    {
      "type": "Feature",
      "properties": {
        "norad_id": 34756,
        "name": "COSMOS 2251 DEB",
        "group": "cosmos-2251-debris",
        "lat": -41.23533369625594,
        "lon": -75.65684994936137,
        "alt_km": 1053.4533217843355,
        "timestamp": "2025-12-21T14:40:48.313935+00:00",
        "meta_object_name": "COSMOS 2251 DEB",
        "meta_object_id": "1993-036AAA",
        "meta_epoch": "2025-12-20T05:57:15.725088",
        "meta_mean_motion": 13.67260552,
        "meta_eccentricity": 0.0345561,
        "meta_inclination": 74.0031,
        "meta_ra_of_asc_node": 92.022,
        "meta_arg_of_pericenter": 326.2182,
        "meta_mean_anomaly": 31.7332,
        "meta_ephemeris_type": 0,
        "meta_classification_type": "U",
        "meta_norad_cat_id": 34756,
        "meta_element_set_no": 999,
        "meta_rev_at_epoch": 83524,
        "meta_bstar": 0.00082416,
        "meta_mean_motion_dot": 1.022e-05,
        "meta_mean_motion_ddot": 0,
        "tle_line1": "1 34756U 93036AAA 25354.24809867  .00001022  00000+0  82416-3 0  9997",
        "tle_line2": "2 34756  74.0031  92.0220 0345561 326.2182  31.7332 13.67260552835243"
      },
      "geometry": {
        "type": "Point",
        "coordinates": [
          -75.65684994936137,
          -41.23533369625594
        ]
      }
    },
    {
      "type": "Feature",
      "properties": {
        "norad_id": 34758,
        "name": "COSMOS 2251 DEB",
        "group": "cosmos-2251-debris",
        "lat": 44.56835819916441,
        "lon": -58.48353071173663,
        "alt_km": 754.8806353940117,
        "timestamp": "2025-12-21T14:40:48.313946+00:00",
        "meta_object_name": "COSMOS 2251 DEB",
        "meta_object_id": "1993-036AAC",
        "meta_epoch": "2025-12-21T02:05:27.269088",
        "meta_mean_motion": 13.58097876,
        "meta_eccentricity": 0.03820265,
        "meta_inclination": 74.1076,
        "meta_ra_of_asc_node": 286.0629,
        "meta_arg_of_pericenter": 47.8221,
        "meta_mean_anomaly": 315.467,
        "meta_ephemeris_type": 0,
        "meta_classification_type": "U",
        "meta_norad_cat_id": 34758,
        "meta_element_set_no": 999,
        "meta_rev_at_epoch": 83023,
        "meta_bstar": 0.0013759148,
        "meta_mean_motion_dot": 1.585e-05,
        "meta_mean_motion_ddot": 0,
        "tle_line1": "1 34758U 93036AAC 25355.08712117  .00001585  00000+0  13759-2 0  9990",
        "tle_line2": "2 34758  74.1076 286.0629 0382026  47.8221 315.4670 13.58097876830238"
      },
      "geometry": {
        "type": "Point",
        "coordinates": [
          -58.48353071173663,
          44.56835819916441
        ]
      }
    },
    {
      "type": "Feature",
      "properties": {
        "norad_id": 34760,
        "name": "COSMOS 2251 DEB",
        "group": "cosmos-2251-debris",
        "lat": 70.92926955962959,
        "lon": 50.78548850666002,
        "alt_km": 858.0995128023242,
        "timestamp": "2025-12-21T14:40:48.313956+00:00",
        "meta_object_name": "COSMOS 2251 DEB",
        "meta_object_id": "1993-036AAE",
        "meta_epoch": "2025-12-21T02:27:21.793248",
        "meta_mean_motion": 14.19589207,
        "meta_eccentricity": 0.00971621,
        "meta_inclination": 74.0634,
        "meta_ra_of_asc_node": 287.4354,
        "meta_arg_of_pericenter": 337.728,
        "meta_mean_anomaly": 39.9901,
        "meta_ephemeris_type": 0,
        "meta_classification_type": "U",
        "meta_norad_cat_id": 34760,
        "meta_element_set_no": 999,
        "meta_rev_at_epoch": 86807,
        "meta_bstar": 0.00035110711,
        "meta_mean_motion_dot": 7.51e-06,
        "meta_mean_motion_ddot": 0,
        "tle_line1": "1 34760U 93036AAE 25355.10233557  .00000751  00000+0  35111-3 0  9993",
        "tle_line2": "2 34760  74.0634 287.4354 0097162 337.7280  39.9901 14.19589207868070"
      },
      "geometry": {
        "type": "Point",
        "coordinates": [
          50.78548850666002,
          70.92926955962959
        ]
      }
    },
    {
      "type": "Feature",
      "properties": {
        "norad_id": 34761,
        "name": "COSMOS 2251 DEB",
        "group": "cosmos-2251-debris",
        "lat": -63.959714599345766,
        "lon": -157.67401562944863,
        "alt_km": 788.1913556322088,
        "timestamp": "2025-12-21T14:40:48.313966+00:00",
        "meta_object_name": "COSMOS 2251 DEB",
        "meta_object_id": "1993-036AAF",
        "meta_epoch": "2025-12-20T15:49:12.081504",
        "meta_mean_motion": 14.3807453,
        "meta_eccentricity": 0.00368471,
        "meta_inclination": 74.0284,
        "meta_ra_of_asc_node": 348.1964,
        "meta_arg_of_pericenter": 20.0279,
        "meta_mean_anomaly": 340.2311,
        "meta_ephemeris_type": 0,
        "meta_classification_type": "U",
        "meta_norad_cat_id": 34761,
        "meta_element_set_no": 999,
        "meta_rev_at_epoch": 87763,
        "meta_bstar": 0.00043327505,
        "meta_mean_motion_dot": 1.297e-05,
        "meta_mean_motion_ddot": 0,
        "tle_line1": "1 34761U 93036AAF 25354.65916761  .00001297  00000+0  43328-3 0  9993",
        "tle_line2": "2 34761  74.0284 348.1964 0036847  20.0279 340.2311 14.38074530877631"
      },
      "geometry": {
        "type": "Point",
        "coordinates": [
          -157.67401562944863,
          -63.959714599345766
        ]
      }
    }
  ]
}